start=new Date('2022-02-10T00:00:00.000Z').valueOf();
sats=[{"CENTER_NAME":"EARTH","OBJECT_TYPE":"PAYLOAD","BSTAR":"0.00012415000000","COUNTRY_CODE":"US","ARG_OF_PERICENTER":"74.1707","TIME_SYSTEM":"UTC","RCS_SIZE":"LARGE","MEAN_ANOMALY":"285.9458","SITE":"AFETR","TLE_LINE1":"1 47379U 21005AG  22040.74995601  .00001568  00000-0  12415-3 0  9993","ELEMENT_SET_NO":"999","GP_ID":"195646872","CLASSIFICATION_TYPE":"U","OBJECT_NAME":"STARLINK-2099","ECCENTRICITY":"0.00015920","DECAY_DATE":null,"INCLINATION":"53.0542","REV_AT_EPOCH":"5918","EPOCH":"2022-02-09T17:59:56.199264","REF_FRAME":"TEME","OBJECT_ID":"2021-005AG","MEAN_ELEMENT_THEORY":"SGP4","PERIOD":"95.592","EPHEMERIS_TYPE":"0","TLE_LINE2":"2 47379  53.0542 225.7243 0001592  74.1707 285.9458 15.06399468 59184","MEAN_MOTION_DDOT":"0.0000000000000","FILE":"3296182","LAUNCH_DATE":"2021-01-20","MEAN_MOTION_DOT":"0.00001568","PERIAPSIS":"546.113","SEMIMAJOR_AXIS":"6925.350","NORAD_CAT_ID":"47379","RA_OF_ASC_NODE":"225.7243","APOAPSIS":"548.318","MEAN_MOTION":"15.06399468"},{"CENTER_NAME":"EARTH","OBJECT_TYPE":"PAYLOAD","BSTAR":"0.00013094000000","COUNTRY_CODE":"US","ARG_OF_PERICENTER":"69.3775","TIME_SYSTEM":"UTC","RCS_SIZE":"LARGE","MEAN_ANOMALY":"290.7402","SITE":"AFETR","TLE_LINE1":"1 47380U 21005AH  22040.24776040  .00001669  00000-0  13094-3 0  9990","ELEMENT_SET_NO":"999","GP_ID":"195639754","OBJECT_NAME":"STARLINK-2100","CLASSIFICATION_TYPE":"U","ECCENTRICITY":"0.00017590","DECAY_DATE":null,"INCLINATION":"53.0520","REV_AT_EPOCH":"5897","EPOCH":"2022-02-09T05:56:46.498560","OBJECT_ID":"2021-005AH","REF_FRAME":"TEME","PERIOD":"95.593","MEAN_ELEMENT_THEORY":"SGP4","EPHEMERIS_TYPE":"0","TLE_LINE2":"2 47380  53.0520 237.9920 0001759  69.3775 290.7402 15.06389879 58979","MEAN_MOTION_DDOT":"0.0000000000000","FILE":"3295989","LAUNCH_DATE":"2021-01-20","MEAN_MOTION_DOT":"0.00001669","PERIAPSIS":"546.026","SEMIMAJOR_AXIS":"6925.380","NORAD_CAT_ID":"47380","RA_OF_ASC_NODE":"237.9920","APOAPSIS":"548.463","MEAN_MOTION":"15.06389879"},{"DECAY_DATE":null,"OBJECT_ID":"2021-005AJ","REF_FRAME":"TEME","EPOCH":"2022-02-09T06:08:02.935392","REV_AT_EPOCH":"5890","INCLINATION":"53.0525","PERIAPSIS":"546.172","MEAN_MOTION_DOT":"0.00002245","LAUNCH_DATE":"2021-01-20","FILE":"3295989","MEAN_MOTION_DDOT":"0.0000000000000","TLE_LINE2":"2 47381  53.0525 242.9589 0001592  72.5646 287.5517 15.06380178 58907","EPHEMERIS_TYPE":"0","MEAN_ELEMENT_THEORY":"SGP4","PERIOD":"95.593","APOAPSIS":"548.377","MEAN_MOTION":"15.06380178","SEMIMAJOR_AXIS":"6925.409","NORAD_CAT_ID":"47381","RA_OF_ASC_NODE":"242.9589","ARG_OF_PERICENTER":"72.5646","COUNTRY_CODE":"US","BSTAR":"0.00016962000000","OBJECT_TYPE":"PAYLOAD","CENTER_NAME":"EARTH","ELEMENT_SET_NO":"999","TLE_LINE1":"1 47381U 21005AJ  22040.25558953  .00002245  00000-0  16962-3 0  9991","SITE":"AFETR","MEAN_ANOMALY":"287.5517","RCS_SIZE":"LARGE","TIME_SYSTEM":"UTC","GP_ID":"195640004","ECCENTRICITY":"0.00015920","OBJECT_NAME":"STARLINK-2101","CLASSIFICATION_TYPE":"U"},{"MEAN_ANOMALY":"294.8410","SITE":"AFETR","TLE_LINE1":"1 47382U 21005AK  22040.57211555  .00002007  00000-0  15361-3 0  9999","TIME_SYSTEM":"UTC","RCS_SIZE":"LARGE","ELEMENT_SET_NO":"999","OBJECT_TYPE":"PAYLOAD","BSTAR":"0.00015361000000","CENTER_NAME":"EARTH","ARG_OF_PERICENTER":"65.2732","COUNTRY_CODE":"US","ECCENTRICITY":"0.00014680","OBJECT_NAME":"STARLINK-2102","CLASSIFICATION_TYPE":"U","GP_ID":"195640255","EPOCH":"2022-02-09T13:43:50.783520","INCLINATION":"53.0544","REV_AT_EPOCH":"5901","REF_FRAME":"TEME","OBJECT_ID":"2021-005AK","DECAY_DATE":null,"RA_OF_ASC_NODE":"236.5220","SEMIMAJOR_AXIS":"6925.355","NORAD_CAT_ID":"47382","MEAN_MOTION":"15.06397862","APOAPSIS":"548.237","TLE_LINE2":"2 47382  53.0544 236.5220 0001468  65.2732 294.8410 15.06397862 59011","MEAN_MOTION_DDOT":"0.0000000000000","PERIOD":"95.592","MEAN_ELEMENT_THEORY":"SGP4","EPHEMERIS_TYPE":"0","MEAN_MOTION_DOT":"0.00002007","PERIAPSIS":"546.203","FILE":"3295989","LAUNCH_DATE":"2021-01-20"},{"EPHEMERIS_TYPE":"0","MEAN_ELEMENT_THEORY":"SGP4","PERIOD":"95.592","MEAN_MOTION_DDOT":"0.0000000000000","TLE_LINE2":"2 47383  53.0542 225.5535 0001907  70.3383 289.7812 15.06394869 59196","LAUNCH_DATE":"2021-01-20","FILE":"3296198","PERIAPSIS":"545.909","MEAN_MOTION_DOT":"-0.00000163","SEMIMAJOR_AXIS":"6925.364","NORAD_CAT_ID":"47383","RA_OF_ASC_NODE":"225.5535","MEAN_MOTION":"15.06394869","APOAPSIS":"548.550","DECAY_DATE":null,"REV_AT_EPOCH":"5919","INCLINATION":"53.0542","EPOCH":"2022-02-09T18:56:58.267392","REF_FRAME":"TEME","OBJECT_ID":"2021-005AL","GP_ID":"195647308","CLASSIFICATION_TYPE":"U","OBJECT_NAME":"STARLINK-2103","ECCENTRICITY":"0.00019070","CENTER_NAME":"EARTH","BSTAR":"0.00000794350000","OBJECT_TYPE":"PAYLOAD","COUNTRY_CODE":"US","ARG_OF_PERICENTER":"70.3383","RCS_SIZE":"LARGE","TIME_SYSTEM":"UTC","TLE_LINE1":"1 47383U 21005AL  22040.78956328 -.00000163  00000-0  79435-5 0  9993","SITE":"AFETR","MEAN_ANOMALY":"289.7812","ELEMENT_SET_NO":"999"},{"CLASSIFICATION_TYPE":"U","OBJECT_NAME":"STARLINK-2104","ECCENTRICITY":"0.00016970","GP_ID":"195639254","RCS_SIZE":"LARGE","TIME_SYSTEM":"UTC","SITE":"AFETR","TLE_LINE1":"1 47384U 21005AM  22040.53431330  .00001825  00000-0  14142-3 0  9995","MEAN_ANOMALY":"287.2395","ELEMENT_SET_NO":"999","CENTER_NAME":"EARTH","BSTAR":"0.00014142000000","OBJECT_TYPE":"PAYLOAD","COUNTRY_CODE":"US","ARG_OF_PERICENTER":"72.8780","SEMIMAJOR_AXIS":"6925.356","NORAD_CAT_ID":"47384","RA_OF_ASC_NODE":"236.7073","MEAN_MOTION":"15.06397660","APOAPSIS":"548.396","EPHEMERIS_TYPE":"0","PERIOD":"95.592","MEAN_ELEMENT_THEORY":"SGP4","MEAN_MOTION_DDOT":"0.0000000000000","TLE_LINE2":"2 47384  53.0545 236.7073 0001697  72.8780 287.2395 15.06397660 59017","LAUNCH_DATE":"2021-01-20","FILE":"3295989","PERIAPSIS":"546.045","MEAN_MOTION_DOT":"0.00001825","REV_AT_EPOCH":"5901","INCLINATION":"53.0545","EPOCH":"2022-02-09T12:49:24.669120","OBJECT_ID":"2021-005AM","REF_FRAME":"TEME","DECAY_DATE":null},{"SEMIMAJOR_AXIS":"6925.349","NORAD_CAT_ID":"47385","RA_OF_ASC_NODE":"236.6141","APOAPSIS":"548.366","MEAN_MOTION":"15.06399994","TLE_LINE2":"2 47385  53.0540 236.6141 0001664  69.2983 290.8184 15.06399994 59015","MEAN_MOTION_DDOT":"0.0000000000000","PERIOD":"95.592","MEAN_ELEMENT_THEORY":"SGP4","EPHEMERIS_TYPE":"0","MEAN_MOTION_DOT":"0.00001979","PERIAPSIS":"546.061","FILE":"3295989","LAUNCH_DATE":"2021-01-20","EPOCH":"2022-02-09T13:17:18.301056","INCLINATION":"53.0540","REV_AT_EPOCH":"5901","OBJECT_ID":"2021-005AN","REF_FRAME":"TEME","DECAY_DATE":null,"ECCENTRICITY":"0.00016640","CLASSIFICATION_TYPE":"U","OBJECT_NAME":"STARLINK-2105","GP_ID":"195639504","MEAN_ANOMALY":"290.8184","TLE_LINE1":"1 47385U 21005AN  22040.55368404  .00001979  00000-0  15170-3 0  9991","SITE":"AFETR","TIME_SYSTEM":"UTC","RCS_SIZE":"LARGE","ELEMENT_SET_NO":"999","OBJECT_TYPE":"PAYLOAD","BSTAR":"0.00015170000000","CENTER_NAME":"EARTH","ARG_OF_PERICENTER":"69.2983","COUNTRY_CODE":"US"},{"COUNTRY_CODE":"US","ARG_OF_PERICENTER":"65.6248","CENTER_NAME":"EARTH","BSTAR":"0.00015331000000","OBJECT_TYPE":"PAYLOAD","ELEMENT_SET_NO":"999","RCS_SIZE":"LARGE","TIME_SYSTEM":"UTC","TLE_LINE1":"1 47386U 21005AP  22040.51682150  .00002003  00000-0  15331-3 0  9993","SITE":"AFETR","MEAN_ANOMALY":"294.4900","GP_ID":"195640756","CLASSIFICATION_TYPE":"U","OBJECT_NAME":"STARLINK-2106","ECCENTRICITY":"0.00015210","DECAY_DATE":null,"REF_FRAME":"TEME","OBJECT_ID":"2021-005AP","REV_AT_EPOCH":"5901","INCLINATION":"53.0532","EPOCH":"2022-02-09T12:24:13.377600","LAUNCH_DATE":"2021-01-20","FILE":"3295989","PERIAPSIS":"546.157","MEAN_MOTION_DOT":"0.00002003","EPHEMERIS_TYPE":"0","PERIOD":"95.592","MEAN_ELEMENT_THEORY":"SGP4","MEAN_MOTION_DDOT":"0.0000000000000","TLE_LINE2":"2 47386  53.0532 236.7831 0001521  65.6248 294.4900 15.06400915 59012","MEAN_MOTION":"15.06400915","APOAPSIS":"548.264","SEMIMAJOR_AXIS":"6925.346","NORAD_CAT_ID":"47386","RA_OF_ASC_NODE":"236.7831"},{"PERIOD":"95.593","MEAN_ELEMENT_THEORY":"SGP4","EPHEMERIS_TYPE":"0","TLE_LINE2":"2 47387  53.0532 265.6547 0001740  67.3100 292.8073 15.06393144 58621","MEAN_MOTION_DDOT":"0.0000000000000","FILE":"3296259","LAUNCH_DATE":"2021-01-20","MEAN_MOTION_DOT":"0.00002320","PERIAPSIS":"546.030","SEMIMAJOR_AXIS":"6925.370","NORAD_CAT_ID":"47387","RA_OF_ASC_NODE":"265.6547","MEAN_MOTION":"15.06393144","APOAPSIS":"548.440","DECAY_DATE":null,"INCLINATION":"53.0532","REV_AT_EPOCH":"5862","EPOCH":"2022-02-09T18:26:30.516864","REF_FRAME":"TEME","OBJECT_ID":"2021-005AQ","GP_ID":"195648680","CLASSIFICATION_TYPE":"U","OBJECT_NAME":"STARLINK-2108","ECCENTRICITY":"0.00017400","CENTER_NAME":"EARTH","OBJECT_TYPE":"PAYLOAD","BSTAR":"0.00017466000000","COUNTRY_CODE":"US","ARG_OF_PERICENTER":"67.3100","TIME_SYSTEM":"UTC","RCS_SIZE":"LARGE","MEAN_ANOMALY":"292.8073","TLE_LINE1":"1 47387U 21005AQ  22040.76840876  .00002320  00000-0  17466-3 0  9995","SITE":"AFETR","ELEMENT_SET_NO":"999"},{"CLASSIFICATION_TYPE":"U","OBJECT_NAME":"STARLINK-2109","ECCENTRICITY":"0.00017210","GP_ID":"195648516","ELEMENT_SET_NO":"999","TIME_SYSTEM":"UTC","RCS_SIZE":"LARGE","MEAN_ANOMALY":"301.6238","TLE_LINE1":"1 47388U 21005AR  22040.78314184  .00006579  00000-0  46019-3 0  9992","SITE":"AFETR","COUNTRY_CODE":"US","ARG_OF_PERICENTER":"58.4919","CENTER_NAME":"EARTH","OBJECT_TYPE":"PAYLOAD","BSTAR":"0.00046019000000","APOAPSIS":"548.421","MEAN_MOTION":"15.06395076","SEMIMAJOR_AXIS":"6925.364","NORAD_CAT_ID":"47388","RA_OF_ASC_NODE":"265.5888","FILE":"3296259","LAUNCH_DATE":"2021-01-20","MEAN_MOTION_DOT":"0.00006579","PERIAPSIS":"546.037","MEAN_ELEMENT_THEORY":"SGP4","PERIOD":"95.592","EPHEMERIS_TYPE":"0","TLE_LINE2":"2 47388  53.0524 265.5888 0001721  58.4919 301.6238 15.06395076 59582","MEAN_MOTION_DDOT":"0.0000000000000","REF_FRAME":"TEME","OBJECT_ID":"2021-005AR","INCLINATION":"53.0524","REV_AT_EPOCH":"5958","EPOCH":"2022-02-09T18:47:43.454976","DECAY_DATE":null}];
